FLOCK 4H-14             
1 66717U 25276BD  26117.20291168  .00008261  00000+0  38188-3 0  9992
2 66717  97.4223 191.8496 0002529 107.1220 253.0293 15.20420234 21948
FLOCK 4H-15             
1 66718U 25276BE  26117.46580895  .00007685  00000+0  37039-3 0  9992
2 66718  97.4237 191.8262 0004601 172.6468 187.4834 15.18987977 22715
FLOCK 4H-16             
1 66719U 25276BF  26117.45087997  .00007854  00000+0  37630-3 0  9992
2 66719  97.4253 191.8774 0004948 162.3030 197.8378 15.19186242 22712
FLOCK 4H-18             
1 66721U 25276BH  26117.45482531  .00007559  00000+0  36253-3 0  9990
2 66721  97.4195 191.7589 0003859 180.3111 179.8122 15.19167722 22712
FLOCK 4H-19             
1 66722U 25276BJ  26117.18993583  .00007308  00000+0  33770-3 0  9998
2 66722  97.4196 191.8111 0003278 105.9734 254.1862 15.20468815 21980
FLOCK 4H-20             
1 66723U 25276BK  26117.46199605  .00008727  00000+0  40158-3 0  9997
2 66723  97.4234 192.1321 0004199 113.0016 247.1663 15.20554991 21989
FLOCK 4H-21             
1 66724U 25276BL  26117.47283206  .00006835  00000+0  31842-3 0  9998
2 66724  97.4199 192.0482 0004040 113.3625 246.8035 15.20211249 21986
FLOCK 4H-22             
1 66725U 25276BM  26117.48705875  .00007656  00000+0  36330-3 0  9990
2 66725  97.4189 191.8535 0002825 172.5273 187.6004 15.19536795 22722
FLOCK 4H-23             
1 66726U 25276BN  26117.45310863  .00007646  00000+0  36687-3 0  9991
2 66726  97.4258 191.8826 0005261 155.9403 204.2078 15.19143141 22715
FLOCK 4H-24             
1 66727U 25276BP  26117.44312008  .00007736  00000+0  37019-3 0  9994
2 66727  97.4252 191.8939 0004398 167.8852 192.2489 15.19238334 22716
FLOCK 4H-25             
1 66728U 25276BQ  26117.48658737  .00007219  00000+0  33728-3 0  9990
2 66728  97.4210 192.0523 0002264 100.7684 259.3806 15.20098932 22013
FLOCK 4H-26             
1 66729U 25276BR  26117.46323036  .00007482  00000+0  36055-3 0  9998
2 66729  97.4208 191.7732 0005272 168.6536 191.4818 15.19002480 22717
FLOCK 4H-27             
1 66730U 25276BS  26117.44029579  .00007189  00000+0  33854-3 0  9991
2 66730  97.4183 191.9119 0002270 112.9002 247.2472 15.19826997 22721
FLOCK 4H-28             
1 66731U 25276BT  26117.46170564  .00007539  00000+0  36273-3 0  9992
2 66731  97.4193 191.7515 0004871 169.4126 190.7212 15.19056182 22718
FLOCK 4H-29             
1 66732U 25276BU  26117.44988464  .00007252  00000+0  34818-3 0  9992
2 66732  97.4189 191.7482 0003491 172.7607 187.3679 15.19146016 22710
FLOCK 4H-30             
1 66733U 25276BV  26117.51317552  .00006660  00000+0  31928-3 0  9996
2 66733  97.4251 191.9415 0004718 167.9331 192.2017 15.19225350 22723
FLOCK 4H-31             
1 66734U 25276BW  26117.45782748  .00007259  00000+0  34949-3 0  9994
2 66734  97.4185 191.7358 0004001 171.9321 188.1979 15.19048632 22719
