[{"OBJECT_NAME":"FLOCK 4H-14","OBJECT_ID":"2025-276BD","EPOCH":"2026-04-27T04:52:11.569152","MEAN_MOTION":15.20420234,"ECCENTRICITY":0.00025294,"INCLINATION":97.4223,"RA_OF_ASC_NODE":191.8496,"ARG_OF_PERICENTER":107.122,"MEAN_ANOMALY":253.0293,"EPHEMERIS_TYPE":0,"CLASSIFICATION_TYPE":"U","NORAD_CAT_ID":66717,"ELEMENT_SET_NO":999,"REV_AT_EPOCH":2194,"BSTAR":0.00038188466,"MEAN_MOTION_DOT":8.261e-5,"MEAN_MOTION_DDOT":0},{"OBJECT_NAME":"FLOCK 4H-15","OBJECT_ID":"2025-276BE","EPOCH":"2026-04-27T11:10:45.893280","MEAN_MOTION":15.18987977,"ECCENTRICITY":0.0004601,"INCLINATION":97.4237,"RA_OF_ASC_NODE":191.8262,"ARG_OF_PERICENTER":172.6468,"MEAN_ANOMALY":187.4834,"EPHEMERIS_TYPE":0,"CLASSIFICATION_TYPE":"U","NORAD_CAT_ID":66718,"ELEMENT_SET_NO":999,"REV_AT_EPOCH":2271,"BSTAR":0.00037039,"MEAN_MOTION_DOT":7.685e-5,"MEAN_MOTION_DDOT":0},{"OBJECT_NAME":"FLOCK 4H-16","OBJECT_ID":"2025-276BF","EPOCH":"2026-04-27T10:49:16.029408","MEAN_MOTION":15.19186242,"ECCENTRICITY":0.0004948,"INCLINATION":97.4253,"RA_OF_ASC_NODE":191.8774,"ARG_OF_PERICENTER":162.303,"MEAN_ANOMALY":197.8378,"EPHEMERIS_TYPE":0,"CLASSIFICATION_TYPE":"U","NORAD_CAT_ID":66719,"ELEMENT_SET_NO":999,"REV_AT_EPOCH":2271,"BSTAR":0.0003763,"MEAN_MOTION_DOT":7.854e-5,"MEAN_MOTION_DDOT":0},{"OBJECT_NAME":"FLOCK 4H-18","OBJECT_ID":"2025-276BH","EPOCH":"2026-04-27T10:54:56.906784","MEAN_MOTION":15.19167722,"ECCENTRICITY":0.0003859,"INCLINATION":97.4195,"RA_OF_ASC_NODE":191.7589,"ARG_OF_PERICENTER":180.3111,"MEAN_ANOMALY":179.8122,"EPHEMERIS_TYPE":0,"CLASSIFICATION_TYPE":"U","NORAD_CAT_ID":66721,"ELEMENT_SET_NO":999,"REV_AT_EPOCH":2271,"BSTAR":0.00036253,"MEAN_MOTION_DOT":7.559e-5,"MEAN_MOTION_DDOT":0},{"OBJECT_NAME":"FLOCK 4H-19","OBJECT_ID":"2025-276BJ","EPOCH":"2026-04-27T04:33:30.455712","MEAN_MOTION":15.20468815,"ECCENTRICITY":0.00032783,"INCLINATION":97.4196,"RA_OF_ASC_NODE":191.8111,"ARG_OF_PERICENTER":105.9734,"MEAN_ANOMALY":254.1862,"EPHEMERIS_TYPE":0,"CLASSIFICATION_TYPE":"U","NORAD_CAT_ID":66722,"ELEMENT_SET_NO":999,"REV_AT_EPOCH":2198,"BSTAR":0.00033770311,"MEAN_MOTION_DOT":7.308e-5,"MEAN_MOTION_DDOT":0},{"OBJECT_NAME":"FLOCK 4H-20","OBJECT_ID":"2025-276BK","EPOCH":"2026-04-27T11:05:16.458720","MEAN_MOTION":15.20554991,"ECCENTRICITY":0.0004199,"INCLINATION":97.4234,"RA_OF_ASC_NODE":192.1321,"ARG_OF_PERICENTER":113.0016,"MEAN_ANOMALY":247.1663,"EPHEMERIS_TYPE":0,"CLASSIFICATION_TYPE":"U","NORAD_CAT_ID":66723,"ELEMENT_SET_NO":999,"REV_AT_EPOCH":2198,"BSTAR":0.00040158,"MEAN_MOTION_DOT":8.727e-5,"MEAN_MOTION_DDOT":0},{"OBJECT_NAME":"FLOCK 4H-21","OBJECT_ID":"2025-276BL","EPOCH":"2026-04-27T11:20:52.689984","MEAN_MOTION":15.20211249,"ECCENTRICITY":0.000404,"INCLINATION":97.4199,"RA_OF_ASC_NODE":192.0482,"ARG_OF_PERICENTER":113.3625,"MEAN_ANOMALY":246.8035,"EPHEMERIS_TYPE":0,"CLASSIFICATION_TYPE":"U","NORAD_CAT_ID":66724,"ELEMENT_SET_NO":999,"REV_AT_EPOCH":2198,"BSTAR":0.00031842,"MEAN_MOTION_DOT":6.835e-5,"MEAN_MOTION_DDOT":0},{"OBJECT_NAME":"FLOCK 4H-22","OBJECT_ID":"2025-276BM","EPOCH":"2026-04-27T11:41:21.876000","MEAN_MOTION":15.19536795,"ECCENTRICITY":0.0002825,"INCLINATION":97.4189,"RA_OF_ASC_NODE":191.8535,"ARG_OF_PERICENTER":172.5273,"MEAN_ANOMALY":187.6004,"EPHEMERIS_TYPE":0,"CLASSIFICATION_TYPE":"U","NORAD_CAT_ID":66725,"ELEMENT_SET_NO":999,"REV_AT_EPOCH":2272,"BSTAR":0.0003633,"MEAN_MOTION_DOT":7.656e-5,"MEAN_MOTION_DDOT":0},{"OBJECT_NAME":"FLOCK 4H-23","OBJECT_ID":"2025-276BN","EPOCH":"2026-04-27T10:52:28.585632","MEAN_MOTION":15.19143141,"ECCENTRICITY":0.0005261,"INCLINATION":97.4258,"RA_OF_ASC_NODE":191.8826,"ARG_OF_PERICENTER":155.9403,"MEAN_ANOMALY":204.2078,"EPHEMERIS_TYPE":0,"CLASSIFICATION_TYPE":"U","NORAD_CAT_ID":66726,"ELEMENT_SET_NO":999,"REV_AT_EPOCH":2271,"BSTAR":0.00036687,"MEAN_MOTION_DOT":7.646e-5,"MEAN_MOTION_DDOT":0},{"OBJECT_NAME":"FLOCK 4H-24","OBJECT_ID":"2025-276BP","EPOCH":"2026-04-27T10:38:05.574912","MEAN_MOTION":15.19238334,"ECCENTRICITY":0.0004398,"INCLINATION":97.4252,"RA_OF_ASC_NODE":191.8939,"ARG_OF_PERICENTER":167.8852,"MEAN_ANOMALY":192.2489,"EPHEMERIS_TYPE":0,"CLASSIFICATION_TYPE":"U","NORAD_CAT_ID":66727,"ELEMENT_SET_NO":999,"REV_AT_EPOCH":2271,"BSTAR":0.00037019,"MEAN_MOTION_DOT":7.736e-5,"MEAN_MOTION_DDOT":0},{"OBJECT_NAME":"FLOCK 4H-25","OBJECT_ID":"2025-276BQ","EPOCH":"2026-04-27T11:40:41.148768","MEAN_MOTION":15.20098932,"ECCENTRICITY":0.0002264,"INCLINATION":97.421,"RA_OF_ASC_NODE":192.0523,"ARG_OF_PERICENTER":100.7684,"MEAN_ANOMALY":259.3806,"EPHEMERIS_TYPE":0,"CLASSIFICATION_TYPE":"U","NORAD_CAT_ID":66728,"ELEMENT_SET_NO":999,"REV_AT_EPOCH":2201,"BSTAR":0.00033728,"MEAN_MOTION_DOT":7.219e-5,"MEAN_MOTION_DDOT":0},{"OBJECT_NAME":"FLOCK 4H-26","OBJECT_ID":"2025-276BR","EPOCH":"2026-04-27T11:07:03.103104","MEAN_MOTION":15.1900248,"ECCENTRICITY":0.0005272,"INCLINATION":97.4208,"RA_OF_ASC_NODE":191.7732,"ARG_OF_PERICENTER":168.6536,"MEAN_ANOMALY":191.4818,"EPHEMERIS_TYPE":0,"CLASSIFICATION_TYPE":"U","NORAD_CAT_ID":66729,"ELEMENT_SET_NO":999,"REV_AT_EPOCH":2271,"BSTAR":0.00036055,"MEAN_MOTION_DOT":7.482e-5,"MEAN_MOTION_DDOT":0},{"OBJECT_NAME":"FLOCK 4H-27","OBJECT_ID":"2025-276BS","EPOCH":"2026-04-27T10:34:01.556256","MEAN_MOTION":15.19826997,"ECCENTRICITY":0.000227,"INCLINATION":97.4183,"RA_OF_ASC_NODE":191.9119,"ARG_OF_PERICENTER":112.9002,"MEAN_ANOMALY":247.2472,"EPHEMERIS_TYPE":0,"CLASSIFICATION_TYPE":"U","NORAD_CAT_ID":66730,"ELEMENT_SET_NO":999,"REV_AT_EPOCH":2272,"BSTAR":0.00033854,"MEAN_MOTION_DOT":7.189e-5,"MEAN_MOTION_DDOT":0},{"OBJECT_NAME":"FLOCK 4H-28","OBJECT_ID":"2025-276BT","EPOCH":"2026-04-27T11:04:51.367296","MEAN_MOTION":15.19056182,"ECCENTRICITY":0.0004871,"INCLINATION":97.4193,"RA_OF_ASC_NODE":191.7515,"ARG_OF_PERICENTER":169.4126,"MEAN_ANOMALY":190.7212,"EPHEMERIS_TYPE":0,"CLASSIFICATION_TYPE":"U","NORAD_CAT_ID":66731,"ELEMENT_SET_NO":999,"REV_AT_EPOCH":2271,"BSTAR":0.00036273,"MEAN_MOTION_DOT":7.539e-5,"MEAN_MOTION_DDOT":0},{"OBJECT_NAME":"FLOCK 4H-29","OBJECT_ID":"2025-276BU","EPOCH":"2026-04-27T10:47:50.032896","MEAN_MOTION":15.19146016,"ECCENTRICITY":0.0003491,"INCLINATION":97.4189,"RA_OF_ASC_NODE":191.7482,"ARG_OF_PERICENTER":172.7607,"MEAN_ANOMALY":187.3679,"EPHEMERIS_TYPE":0,"CLASSIFICATION_TYPE":"U","NORAD_CAT_ID":66732,"ELEMENT_SET_NO":999,"REV_AT_EPOCH":2271,"BSTAR":0.00034818,"MEAN_MOTION_DOT":7.252e-5,"MEAN_MOTION_DDOT":0},{"OBJECT_NAME":"FLOCK 4H-30","OBJECT_ID":"2025-276BV","EPOCH":"2026-04-27T12:18:58.364928","MEAN_MOTION":15.1922535,"ECCENTRICITY":0.0004718,"INCLINATION":97.4251,"RA_OF_ASC_NODE":191.9415,"ARG_OF_PERICENTER":167.9331,"MEAN_ANOMALY":192.2017,"EPHEMERIS_TYPE":0,"CLASSIFICATION_TYPE":"U","NORAD_CAT_ID":66733,"ELEMENT_SET_NO":999,"REV_AT_EPOCH":2272,"BSTAR":0.00031928,"MEAN_MOTION_DOT":6.66e-5,"MEAN_MOTION_DDOT":0},{"OBJECT_NAME":"FLOCK 4H-31","OBJECT_ID":"2025-276BW","EPOCH":"2026-04-27T10:59:16.294272","MEAN_MOTION":15.19048632,"ECCENTRICITY":0.0004001,"INCLINATION":97.4185,"RA_OF_ASC_NODE":191.7358,"ARG_OF_PERICENTER":171.9321,"MEAN_ANOMALY":188.1979,"EPHEMERIS_TYPE":0,"CLASSIFICATION_TYPE":"U","NORAD_CAT_ID":66734,"ELEMENT_SET_NO":999,"REV_AT_EPOCH":2271,"BSTAR":0.00034949,"MEAN_MOTION_DOT":7.259e-5,"MEAN_MOTION_DDOT":0}]
